{
  "type": "FeatureCollection",
  "name": "Four Everest glaciers with synthetic elevation change time series",
  "source": {
    "citation": "RGI Consortium (2017), Randolph Glacier Inventory, Version 6.0",
    "dataset_url": "https://www.glims.org/RGI/randolph60.html",
    "license": "CC BY 4.0",
    "license_url": "https://creativecommons.org/licenses/by/4.0/",
    "via": "https://github.com/GlacioHack/geoutils-data/blob/main/data/Everest_Landsat/15_rgi60_glacier_outlines.gpkg",
    "modifications": "Four outlines selected, simplified with a 0.00025-degree tolerance and coordinates rounded to six decimal places. Synthetic 2000\u20132020 elevation change time series use irregular_dh_timeseries.csv with the listed change and error scales. Areas and glacier coordinates come from RGI."
  },
  "features": [
    {
      "type": "Feature",
      "properties": {
        "label": "G1",
        "rgiid": "RGI60-15.10070",
        "lon": 86.956,
        "lat": 28.089,
        "area_m2": 12646000.0,
        "elevation_change_scale": 0.85,
        "elevation_error_scale": 1.05
      },
      "geometry": {
        "type": "Polygon",
        "coordinates": [
          [
            [
              86.941122,
              28.114554
            ],
            [
              86.951827,
              28.112363
            ],
            [
              86.958245,
              28.113539
            ],
            [
              86.962403,
              28.112579
            ],
            [
              86.965836,
              28.11246
            ],
            [
              86.968304,
              28.107232
            ],
            [
              86.970292,
              28.104409
            ],
            [
              86.972213,
              28.099143
            ],
            [
              86.975271,
              28.097303
            ],
            [
              86.976628,
              28.09598
            ],
            [
              86.976918,
              28.093087
            ],
            [
              86.976356,
              28.092299
            ],
            [
              86.976532,
              28.090288
            ],
            [
              86.969976,
              28.078636
            ],
            [
              86.967448,
              28.078153
            ],
            [
              86.967199,
              28.079037
            ],
            [
              86.967582,
              28.080618
            ],
            [
              86.967026,
              28.081046
            ],
            [
              86.966717,
              28.078227
            ],
            [
              86.965975,
              28.078054
            ],
            [
              86.965226,
              28.080134
            ],
            [
              86.965093,
              28.082094
            ],
            [
              86.964603,
              28.079843
            ],
            [
              86.963975,
              28.080313
            ],
            [
              86.96351,
              28.08222
            ],
            [
              86.960835,
              28.083259
            ],
            [
              86.959587,
              28.082977
            ],
            [
              86.960193,
              28.078321
            ],
            [
              86.961849,
              28.077256
            ],
            [
              86.964363,
              28.076844
            ],
            [
              86.96524,
              28.075806
            ],
            [
              86.962463,
              28.068349
            ],
            [
              86.959993,
              28.067677
            ],
            [
              86.957251,
              28.067474
            ],
            [
              86.951985,
              28.067897
            ],
            [
              86.951024,
              28.06832
            ],
            [
              86.950042,
              28.070227
            ],
            [
              86.949438,
              28.074178
            ],
            [
              86.953032,
              28.076319
            ],
            [
              86.953596,
              28.07699
            ],
            [
              86.953744,
              28.078063
            ],
            [
              86.952972,
              28.080148
            ],
            [
              86.950939,
              28.081524
            ],
            [
              86.946745,
              28.081939
            ],
            [
              86.94357,
              28.08342
            ],
            [
              86.943165,
              28.083173
            ],
            [
              86.943102,
              28.081777
            ],
            [
              86.942133,
              28.080773
            ],
            [
              86.93387,
              28.080787
            ],
            [
              86.932458,
              28.081481
            ],
            [
              86.935492,
              28.084135
            ],
            [
              86.937446,
              28.084717
            ],
            [
              86.939655,
              28.084275
            ],
            [
              86.939596,
              28.085931
            ],
            [
              86.939068,
              28.086422
            ],
            [
              86.936181,
              28.087108
            ],
            [
              86.934641,
              28.088867
            ],
            [
              86.932457,
              28.08906
            ],
            [
              86.932022,
              28.0896
            ],
            [
              86.934388,
              28.091154
            ],
            [
              86.934562,
              28.092338
            ],
            [
              86.938285,
              28.094062
            ],
            [
              86.939336,
              28.094945
            ],
            [
              86.940596,
              28.100355
            ],
            [
              86.942103,
              28.103413
            ],
            [
              86.942687,
              28.106399
            ],
            [
              86.942374,
              28.106776
            ],
            [
              86.94166,
              28.106621
            ],
            [
              86.939322,
              28.105085
            ],
            [
              86.939508,
              28.103937
            ],
            [
              86.940566,
              28.103055
            ],
            [
              86.940553,
              28.101574
            ],
            [
              86.938019,
              28.100414
            ],
            [
              86.935661,
              28.100302
            ],
            [
              86.935135,
              28.100584
            ],
            [
              86.931276,
              28.107757
            ],
            [
              86.93629,
              28.111554
            ],
            [
              86.941122,
              28.114554
            ]
          ],
          [
            [
              86.953397,
              28.098454
            ],
            [
              86.952773,
              28.100893
            ],
            [
              86.952392,
              28.101123
            ],
            [
              86.95078,
              28.099739
            ],
            [
              86.948735,
              28.099877
            ],
            [
              86.946467,
              28.100742
            ],
            [
              86.945613,
              28.100623
            ],
            [
              86.944885,
              28.099976
            ],
            [
              86.94368,
              28.095378
            ],
            [
              86.942654,
              28.093245
            ],
            [
              86.952311,
              28.092535
            ],
            [
              86.956073,
              28.092993
            ],
            [
              86.956634,
              28.093879
            ],
            [
              86.956732,
              28.099169
            ],
            [
              86.955473,
              28.099715
            ],
            [
              86.953397,
              28.098454
            ]
          ],
          [
            [
              86.970739,
              28.094957
            ],
            [
              86.970567,
              28.09773
            ],
            [
              86.96968,
              28.099183
            ],
            [
              86.967238,
              28.097474
            ],
            [
              86.964383,
              28.097535
            ],
            [
              86.964717,
              28.098581
            ],
            [
              86.964313,
              28.098616
            ],
            [
              86.963529,
              28.097653
            ],
            [
              86.962733,
              28.09394
            ],
            [
              86.961411,
              28.09126
            ],
            [
              86.961922,
              28.090955
            ],
            [
              86.96616,
              28.091159
            ],
            [
              86.97241,
              28.090684
            ],
            [
              86.972122,
              28.094562
            ],
            [
              86.971773,
              28.094984
            ],
            [
              86.970739,
              28.094957
            ]
          ]
        ]
      }
    },
    {
      "type": "Feature",
      "properties": {
        "label": "G2",
        "rgiid": "RGI60-15.09801",
        "lon": 86.985,
        "lat": 28.103,
        "area_m2": 6803000.0,
        "elevation_change_scale": 1.0,
        "elevation_error_scale": 1.0
      },
      "geometry": {
        "type": "Polygon",
        "coordinates": [
          [
            [
              86.987484,
              28.119571
            ],
            [
              86.988406,
              28.119377
            ],
            [
              86.992143,
              28.116852
            ],
            [
              86.993125,
              28.115232
            ],
            [
              86.993216,
              28.114259
            ],
            [
              86.992463,
              28.113206
            ],
            [
              86.990271,
              28.112787
            ],
            [
              86.992546,
              28.11074
            ],
            [
              86.992732,
              28.109855
            ],
            [
              86.992079,
              28.109569
            ],
            [
              86.993379,
              28.108405
            ],
            [
              86.993861,
              28.107281
            ],
            [
              86.99332,
              28.104465
            ],
            [
              86.993003,
              28.103977
            ],
            [
              86.991759,
              28.103521
            ],
            [
              86.992056,
              28.102046
            ],
            [
              87.000037,
              28.099397
            ],
            [
              87.003811,
              28.097166
            ],
            [
              87.012893,
              28.093017
            ],
            [
              87.016946,
              28.090498
            ],
            [
              87.017054,
              28.089198
            ],
            [
              87.015376,
              28.089378
            ],
            [
              87.011128,
              28.091392
            ],
            [
              87.008587,
              28.092149
            ],
            [
              86.999541,
              28.093475
            ],
            [
              86.99218,
              28.092004
            ],
            [
              86.987884,
              28.090723
            ],
            [
              86.986823,
              28.091379
            ],
            [
              86.980206,
              28.092999
            ],
            [
              86.978985,
              28.093734
            ],
            [
              86.977468,
              28.09581
            ],
            [
              86.976628,
              28.09598
            ],
            [
              86.975271,
              28.097303
            ],
            [
              86.972213,
              28.099143
            ],
            [
              86.970292,
              28.104409
            ],
            [
              86.968304,
              28.107232
            ],
            [
              86.965836,
              28.11246
            ],
            [
              86.970598,
              28.115519
            ],
            [
              86.976702,
              28.116396
            ],
            [
              86.980426,
              28.118232
            ],
            [
              86.987484,
              28.119571
            ]
          ],
          [
            [
              86.988958,
              28.103029
            ],
            [
              86.9894,
              28.103193
            ],
            [
              86.988774,
              28.104661
            ],
            [
              86.988219,
              28.105707
            ],
            [
              86.987407,
              28.106055
            ],
            [
              86.987814,
              28.103784
            ],
            [
              86.988958,
              28.103029
            ]
          ],
          [
            [
              86.981785,
              28.09702
            ],
            [
              86.985535,
              28.09438
            ],
            [
              86.98756,
              28.09414
            ],
            [
              86.986636,
              28.095391
            ],
            [
              86.980782,
              28.100601
            ],
            [
              86.979306,
              28.102852
            ],
            [
              86.978221,
              28.10632
            ],
            [
              86.97762,
              28.106879
            ],
            [
              86.977109,
              28.106774
            ],
            [
              86.975228,
              28.104658
            ],
            [
              86.975526,
              28.103256
            ],
            [
              86.980929,
              28.098314
            ],
            [
              86.981785,
              28.09702
            ]
          ]
        ]
      }
    },
    {
      "type": "Feature",
      "properties": {
        "label": "G3",
        "rgiid": "RGI60-15.09802",
        "lon": 86.986,
        "lat": 28.081,
        "area_m2": 6293000.0,
        "elevation_change_scale": 0.7,
        "elevation_error_scale": 0.9
      },
      "geometry": {
        "type": "Polygon",
        "coordinates": [
          [
            [
              86.99218,
              28.092004
            ],
            [
              86.997912,
              28.092644
            ],
            [
              87.002562,
              28.092414
            ],
            [
              87.011449,
              28.090454
            ],
            [
              87.014587,
              28.089052
            ],
            [
              87.01669,
              28.085543
            ],
            [
              87.013985,
              28.08552
            ],
            [
              87.011342,
              28.086697
            ],
            [
              87.00633,
              28.087358
            ],
            [
              87.002295,
              28.084759
            ],
            [
              87.0004,
              28.0832
            ],
            [
              86.999692,
              28.082127
            ],
            [
              86.998191,
              28.082635
            ],
            [
              86.997867,
              28.084901
            ],
            [
              87.00031,
              28.085608
            ],
            [
              87.002369,
              28.087564
            ],
            [
              87.00227,
              28.088318
            ],
            [
              86.999671,
              28.088669
            ],
            [
              86.995363,
              28.087706
            ],
            [
              86.994534,
              28.086659
            ],
            [
              86.99459,
              28.085578
            ],
            [
              86.996225,
              28.084281
            ],
            [
              86.997033,
              28.08255
            ],
            [
              86.993836,
              28.080657
            ],
            [
              86.990128,
              28.076913
            ],
            [
              86.989472,
              28.075368
            ],
            [
              86.98835,
              28.074954
            ],
            [
              86.984436,
              28.071476
            ],
            [
              86.983384,
              28.069551
            ],
            [
              86.983239,
              28.066236
            ],
            [
              86.982639,
              28.066129
            ],
            [
              86.98235,
              28.06535
            ],
            [
              86.981217,
              28.065321
            ],
            [
              86.979399,
              28.066672
            ],
            [
              86.977433,
              28.067215
            ],
            [
              86.972843,
              28.067012
            ],
            [
              86.969644,
              28.069129
            ],
            [
              86.966564,
              28.069311
            ],
            [
              86.962463,
              28.068349
            ],
            [
              86.96524,
              28.075806
            ],
            [
              86.968671,
              28.076477
            ],
            [
              86.970077,
              28.077191
            ],
            [
              86.970297,
              28.078068
            ],
            [
              86.969976,
              28.078636
            ],
            [
              86.976532,
              28.090288
            ],
            [
              86.97892,
              28.088093
            ],
            [
              86.982658,
              28.087095
            ],
            [
              86.984958,
              28.088139
            ],
            [
              86.987884,
              28.090723
            ],
            [
              86.99218,
              28.092004
            ]
          ]
        ]
      }
    },
    {
      "type": "Feature",
      "properties": {
        "label": "G4",
        "rgiid": "RGI60-15.09805",
        "lon": 87.007,
        "lat": 28.047,
        "area_m2": 19177000.0,
        "elevation_change_scale": 1.2,
        "elevation_error_scale": 1.15
      },
      "geometry": {
        "type": "Polygon",
        "coordinates": [
          [
            [
              86.983239,
              28.067387
            ],
            [
              86.985547,
              28.06709
            ],
            [
              86.987359,
              28.066181
            ],
            [
              86.989468,
              28.066351
            ],
            [
              86.991321,
              28.065275
            ],
            [
              86.991229,
              28.064881
            ],
            [
              86.99218,
              28.064514
            ],
            [
              86.992435,
              28.063793
            ],
            [
              86.993023,
              28.063491
            ],
            [
              86.996059,
              28.063001
            ],
            [
              86.996397,
              28.063392
            ],
            [
              86.995805,
              28.064464
            ],
            [
              86.998207,
              28.064005
            ],
            [
              87.000486,
              28.063027
            ],
            [
              86.998218,
              28.062184
            ],
            [
              86.997943,
              28.061808
            ],
            [
              86.998482,
              28.060809
            ],
            [
              86.999763,
              28.060636
            ],
            [
              87.003225,
              28.061377
            ],
            [
              87.005638,
              28.059053
            ],
            [
              87.009224,
              28.058077
            ],
            [
              87.01113,
              28.055864
            ],
            [
              87.007989,
              28.053084
            ],
            [
              87.008241,
              28.051593
            ],
            [
              87.011512,
              28.050408
            ],
            [
              87.017931,
              28.049593
            ],
            [
              87.020753,
              28.048605
            ],
            [
              87.029057,
              28.052502
            ],
            [
              87.035444,
              28.058924
            ],
            [
              87.039743,
              28.064069
            ],
            [
              87.040577,
              28.064675
            ],
            [
              87.041936,
              28.064494
            ],
            [
              87.043966,
              28.063044
            ],
            [
              87.044318,
              28.062174
            ],
            [
              87.040697,
              28.053795
            ],
            [
              87.039434,
              28.050172
            ],
            [
              87.039646,
              28.049341
            ],
            [
              87.041236,
              28.048945
            ],
            [
              87.042816,
              28.047156
            ],
            [
              87.045225,
              28.046624
            ],
            [
              87.048391,
              28.044417
            ],
            [
              87.054041,
              28.042705
            ],
            [
              87.056254,
              28.041332
            ],
            [
              87.056429,
              28.041009
            ],
            [
              87.055511,
              28.039218
            ],
            [
              87.055344,
              28.037849
            ],
            [
              87.05136,
              28.037152
            ],
            [
              87.048278,
              28.034851
            ],
            [
              87.04627,
              28.036171
            ],
            [
              87.043672,
              28.036115
            ],
            [
              87.042444,
              28.034861
            ],
            [
              87.040707,
              28.034568
            ],
            [
              87.039181,
              28.033685
            ],
            [
              87.035784,
              28.03496
            ],
            [
              87.033299,
              28.035275
            ],
            [
              87.032626,
              28.035989
            ],
            [
              87.03245,
              28.038491
            ],
            [
              87.035682,
              28.042727
            ],
            [
              87.036659,
              28.044894
            ],
            [
              87.036464,
              28.046326
            ],
            [
              87.035385,
              28.047312
            ],
            [
              87.032907,
              28.045972
            ],
            [
              87.030303,
              28.043574
            ],
            [
              87.030301,
              28.04275
            ],
            [
              87.031484,
              28.04227
            ],
            [
              87.031408,
              28.041464
            ],
            [
              87.032441,
              28.041204
            ],
            [
              87.031404,
              28.039818
            ],
            [
              87.031239,
              28.035556
            ],
            [
              87.026517,
              28.034624
            ],
            [
              87.023669,
              28.03329
            ],
            [
              87.018739,
              28.033421
            ],
            [
              87.015405,
              28.034192
            ],
            [
              87.014536,
              28.034064
            ],
            [
              87.011575,
              28.032007
            ],
            [
              87.009568,
              28.03162
            ],
            [
              87.00728,
              28.031749
            ],
            [
              87.005044,
              28.033003
            ],
            [
              87.004174,
              28.032392
            ],
            [
              87.001711,
              28.032779
            ],
            [
              87.000084,
              28.032404
            ],
            [
              86.994667,
              28.03305
            ],
            [
              86.988641,
              28.033175
            ],
            [
              86.983941,
              28.035621
            ],
            [
              86.980027,
              28.03549
            ],
            [
              86.974366,
              28.036906
            ],
            [
              86.969903,
              28.037162
            ],
            [
              86.968414,
              28.038418
            ],
            [
              86.964121,
              28.040635
            ],
            [
              86.962874,
              28.043395
            ],
            [
              86.962998,
              28.043904
            ],
            [
              86.963796,
              28.044783
            ],
            [
              86.966493,
              28.045441
            ],
            [
              86.968856,
              28.04704
            ],
            [
              86.975118,
              28.047595
            ],
            [
              86.976983,
              28.04852
            ],
            [
              86.9771,
              28.048964
            ],
            [
              86.976063,
              28.050079
            ],
            [
              86.975538,
              28.050086
            ],
            [
              86.974062,
              28.048966
            ],
            [
              86.97237,
              28.048877
            ],
            [
              86.969825,
              28.049372
            ],
            [
              86.969347,
              28.05021
            ],
            [
              86.969514,
              28.050704
            ],
            [
              86.970722,
              28.0509
            ],
            [
              86.971852,
              28.05233
            ],
            [
              86.977185,
              28.054038
            ],
            [
              86.977126,
              28.054486
            ],
            [
              86.975843,
              28.055297
            ],
            [
              86.975957,
              28.055632
            ],
            [
              86.978076,
              28.055232
            ],
            [
              86.981574,
              28.052434
            ],
            [
              86.982878,
              28.052158
            ],
            [
              86.983456,
              28.052403
            ],
            [
              86.983212,
              28.053065
            ],
            [
              86.98053,
              28.054435
            ],
            [
              86.978697,
              28.056139
            ],
            [
              86.978825,
              28.058109
            ],
            [
              86.978197,
              28.059929
            ],
            [
              86.977087,
              28.060725
            ],
            [
              86.976983,
              28.061716
            ],
            [
              86.977367,
              28.063946
            ],
            [
              86.981661,
              28.064049
            ],
            [
              86.982416,
              28.064446
            ],
            [
              86.983142,
              28.065811
            ],
            [
              86.983239,
              28.067387
            ]
          ],
          [
            [
              86.987968,
              28.064495
            ],
            [
              86.987266,
              28.065309
            ],
            [
              86.986108,
              28.064181
            ],
            [
              86.984325,
              28.063791
            ],
            [
              86.983685,
              28.062902
            ],
            [
              86.984398,
              28.061848
            ],
            [
              86.984132,
              28.060777
            ],
            [
              86.985971,
              28.061655
            ],
            [
              86.986547,
              28.063307
            ],
            [
              86.987874,
              28.063914
            ],
            [
              86.987968,
              28.064495
            ]
          ],
          [
            [
              86.992461,
              28.056196
            ],
            [
              86.993949,
              28.056966
            ],
            [
              86.994006,
              28.058004
            ],
            [
              86.991961,
              28.056425
            ],
            [
              86.992461,
              28.056196
            ]
          ],
          [
            [
              87.005894,
              28.054307
            ],
            [
              87.006878,
              28.056508
            ],
            [
              87.003771,
              28.058971
            ],
            [
              87.002088,
              28.058861
            ],
            [
              87.001967,
              28.057644
            ],
            [
              87.005894,
              28.054307
            ]
          ],
          [
            [
              86.98564,
              28.050776
            ],
            [
              86.985181,
              28.051961
            ],
            [
              86.984175,
              28.051891
            ],
            [
              86.984888,
              28.05086
            ],
            [
              86.98564,
              28.050776
            ]
          ],
          [
            [
              86.991621,
              28.046612
            ],
            [
              86.989242,
              28.047467
            ],
            [
              86.986656,
              28.04968
            ],
            [
              86.986271,
              28.049642
            ],
            [
              86.986367,
              28.04856
            ],
            [
              86.986963,
              28.047971
            ],
            [
              86.994745,
              28.043957
            ],
            [
              86.997297,
              28.044024
            ],
            [
              87.00123,
              28.045247
            ],
            [
              86.998916,
              28.048536
            ],
            [
              86.997159,
              28.049419
            ],
            [
              86.996323,
              28.049285
            ],
            [
              86.997898,
              28.048395
            ],
            [
              86.998106,
              28.047651
            ],
            [
              86.995738,
              28.046837
            ],
            [
              86.994721,
              28.045691
            ],
            [
              86.994155,
              28.045646
            ],
            [
              86.992719,
              28.046743
            ],
            [
              86.991621,
              28.046612
            ]
          ]
        ]
      }
    }
  ]
}
